NORAD_CAT_ID,OBJECT_NAME,OBJECT_TYPE,EPOCH,MEAN_MOTION,ECCENTRICITY,INCLINATION,RA_OF_ASC_NODE,ARG_OF_PERICENTER,MEAN_ANOMALY,BSTAR,MEAN_MOTION_DOT,MEAN_MOTION_DDOT,TLE_LINE0,TLE_LINE1,TLE_LINE2,SEMIMAJOR_AXIS,PERIOD,APOGEE,PERIGEE,DECAYED
52498.0,STARLINK-3925,PAYLOAD,2023-08-15 23:00:25,15.08845276,0.000113,53.2157,284.2691,82.5593,277.5528,0.00014224,1.977e-05,0.0,0 STARLINK-3925,1 52498U 22049AZ  23227.95863236  .00001977  00000-0  14224-3 0  9993,2 52498  53.2157 284.2691 0001130  82.5593 277.5528 15.08845276 71271,6917.864,95.437,540.511,538.948,0.0
52498.0,STARLINK-3925,PAYLOAD,2023-08-16 22:51:12,15.08842602,0.0001133,53.2156,279.8068,90.8311,269.2811,3.7622e-05,3.11e-06,0.0,0 STARLINK-3925,1 52498U 22049AZ  23228.95223165  .00000311  00000-0  37622-4 0  9994,2 52498  53.2156 279.8068 0001133  90.8311 269.2811 15.08842602 71421,6917.872,95.437,540.521,538.954,0.0
52498.0,STARLINK-3925,PAYLOAD,2023-08-18 03:28:09,15.08839593,0.00013,53.2152,274.4537,88.5881,271.526,-0.00010508,-1.96e-05,0.0,0 STARLINK-3925,1 52498U 22049AZ  23230.14455699 -.00001960  00000-0 -10508-3 0  9993,2 52498  53.2152 274.4537 0001300  88.5881 271.5260 15.08839593 71600,6917.882,95.438,540.646,538.847,0.0
52498.0,STARLINK-3925,PAYLOAD,2023-08-19 09:40:29,15.08832214,0.0001264,53.216,268.8047,98.8,261.3136,0.00017356,2.475e-05,0.0,0 STARLINK-3925,1 52498U 22049AZ  23231.40311637  .00002475  00000-0  17356-3 0  9994,2 52498  53.2160 268.8047 0001264  98.8000 261.3136 15.08832214 71790,6917.904,95.438,540.644,538.895,0.0
52498.0,STARLINK-3925,PAYLOAD,2023-08-20 07:55:53,15.0883,0.0001287,53.2161,264.6425,95.1503,264.9636,5.3591e-05,5.65e-06,0.0,0 STARLINK-3925,1 52498U 22049AZ  23232.33048403  .00000565  00000-0  53591-4 0  9995,2 52498  53.2161 264.6425 0001287  95.1503 264.9636 15.08830000 71939,6917.911,95.438,540.666,538.886,0.0
52498.0,STARLINK-3925,PAYLOAD,2023-08-21 03:00:31,15.08839704,0.0001287,53.2157,261.073,90.7282,269.3858,7.3304e-05,8.79e-06,0.0,0 STARLINK-3925,1 52498U 22049AZ  23233.12535913  .00000879  00000-0  73304-4 0  9992,2 52498  53.2157 261.0730 0001287  90.7282 269.3858 15.08839704 72058,6917.881,95.438,540.637,538.856,0.0
52498.0,STARLINK-3925,PAYLOAD,2023-08-22 10:48:13,15.08840484,0.0001323,53.2161,255.1253,87.7342,272.3801,9.4601e-05,1.218e-05,0.0,0 STARLINK-3925,1 52498U 22049AZ  23234.45015973  .00001218  00000-0  94601-4 0  9999,2 52498  53.2161 255.1253 0001323  87.7342 272.3801 15.08840484 72252,6917.879,95.438,540.659,538.829,0.0
52498.0,STARLINK-3925,PAYLOAD,2023-08-24 07:19:01,15.08840786,0.0001418,53.2159,246.7995,93.1272,266.9882,5.4362e-05,5.77e-06,0.0,0 STARLINK-3925,1 52498U 22049AZ  23236.30487947  .00000577  00000-0  54362-4 0  9996,2 52498  53.2159 246.7995 0001418  93.1272 266.9882 15.08840786 72372,6917.878,95.438,540.724,538.762,0.0
52498.0,STARLINK-3925,PAYLOAD,2023-08-25 10:20:34,15.08841074,0.0001515,53.2156,241.743,104.2374,255.8787,2.9009e-05,1.74e-06,0.0,0 STARLINK-3925,1 52498U 22049AZ  23237.43095950  .00000174  00000-0  29009-4 0  9993,2 52498  53.2156 241.7430 0001515 104.2374 255.8787 15.08841074 72702,6917.877,95.437,540.79,538.694,0.0
52498.0,STARLINK-3925,PAYLOAD,2023-08-26 07:00:35,15.08839133,0.0001432,53.2157,237.8772,99.355,260.7604,3.5609e-05,2.79e-06,0.0,0 STARLINK-3925,1 52498U 22049AZ  23238.29208169  .00000279  00000-0  35609-4 0  9995,2 52498  53.2157 237.8772 0001432  99.3550 260.7604 15.08839133 72678,6917.883,95.438,540.739,538.757,0.0
52498.0,STARLINK-3925,PAYLOAD,2023-08-27 00:29:50,15.08836617,0.0001442,53.2157,234.6059,98.4881,261.6275,2.9488e-05,1.81e-06,0.0,0 STARLINK-3925,1 52498U 22049AZ  23239.02072477  .00000181  00000-0  29488-4 0  9998,2 52498  53.2157 234.6059 0001442  98.4881 261.6275 15.08836617 72947,6917.891,95.438,540.753,538.758,0.0
52498.0,STARLINK-3925,PAYLOAD,2023-08-27 05:15:58,15.08855289,0.0001849,53.2158,233.7136,121.9163,238.201,0.00017879,2.56e-05,0.0,0 STARLINK-3925,1 52498U 22049AZ  23239.21942791  .00002560  00000-0  17879-3 0  9997,2 52498  53.2158 233.7136 0001849 121.9163 238.2010 15.08855289 72976,6917.834,95.437,540.978,538.42,0.0
52498.0,STARLINK-3925,PAYLOAD,2023-08-28 00:20:38,15.08829945,0.0001896,53.2171,230.147,104.7799,255.3403,-1.8956e-05,-5.9e-06,0.0,0 STARLINK-3925,1 52498U 22049AZ  23240.01433318 -.00000590  00000-0 -18956-4 0  9998,2 52498  53.2171 230.1470 0001896 104.7799 255.3403 15.08829945 73099,6917.911,95.438,541.088,538.464,0.0
52498.0,STARLINK-3925,PAYLOAD,2023-08-28 16:14:29,15.08837535,0.0001458,53.2163,227.172,92.1121,268.0039,5.0671e-05,5.19e-06,0.0,0 STARLINK-3925,1 52498U 22049AZ  23240.67672898  .00000519  00000-0  50671-4 0  9997,2 52498  53.2163 227.1720 0001458  92.1121 268.0039 15.08837535 73198,6917.888,95.438,540.762,538.744,0.0
52498.0,STARLINK-3925,PAYLOAD,2023-08-29 06:32:57,15.08841321,0.0001427,53.2161,224.4958,90.4085,269.707,9.8636e-05,1.282e-05,0.0,0 STARLINK-3925,1 52498U 22049AZ  23241.27288601  .00001282  00000-0  98636-4 0  9990,2 52498  53.2161 224.4958 0001427  90.4085 269.7070 15.08841321 73129,6917.876,95.437,540.729,538.754,0.0
52498.0,STARLINK-3925,PAYLOAD,2023-08-30 06:23:45,15.08835894,0.0001524,53.2167,220.0343,86.9246,273.1921,3.7545e-05,3.1e-06,0.0,0 STARLINK-3925,1 52498U 22049AZ  23242.26649451  .00000310  00000-0  37545-4 0  9997,2 52498  53.2167 220.0343 0001524  86.9246 273.1921 15.08835894 73438,6917.893,95.438,540.812,538.704,0.0
52498.0,STARLINK-3925,PAYLOAD,2023-08-30 15:56:03,15.08840577,0.0001516,53.217,218.2519,86.7505,273.3661,6.5093e-05,7.48e-06,0.0,0 STARLINK-3925,1 52498U 22049AZ  23242.66393141  .00000748  00000-0  65093-4 0  9997,2 52498  53.2170 218.2519 0001516  86.7505 273.3661 15.08840577 73339,6917.879,95.438,540.792,538.695,0.0
52498.0,STARLINK-3925,PAYLOAD,2023-08-31 04:39:08,15.08846903,0.0001481,53.2172,215.8724,86.9281,273.1881,9.119e-05,1.164e-05,0.0,0 STARLINK-3925,1 52498U 22049AZ  23243.19384548  .00001164  00000-0  91190-4 0  9997,2 52498  53.2172 215.8724 0001481  86.9281 273.1881 15.08846903 73573,6917.859,95.437,540.749,538.7,0.0
52498.0,STARLINK-3925,PAYLOAD,2023-08-31 07:49:54,15.08847528,0.0001609,53.2171,215.2776,92.008,268.1097,8.3503e-05,1.041e-05,0.0,0 STARLINK-3925,1 52498U 22049AZ  23243.32632492  .00001041  00000-0  83503-4 0  9999,2 52498  53.2171 215.2776 0001609  92.0080 268.1097 15.08847528 73432,6917.857,95.437,540.835,538.609,0.0
52498.0,STARLINK-3925,PAYLOAD,2023-09-01 07:40:41,15.08840607,0.000145,53.2165,210.8166,96.3025,263.8132,4.8663e-05,4.87e-06,0.0,0 STARLINK-3925,1 52498U 22049AZ  23244.31993036  .00000487  00000-0  48663-4 0  9994,2 52498  53.2165 210.8166 0001450  96.3025 263.8132 15.08840607 73746,6917.879,95.438,540.747,538.74,0.0
52498.0,STARLINK-3925,PAYLOAD,2023-09-02 07:31:28,15.08842854,0.0001571,53.2152,206.3571,92.348,267.7692,4.1187e-05,3.68e-06,0.0,0 STARLINK-3925,1 52498U 22049AZ  23245.31352833  .00000368  00000-0  41187-4 0  9991,2 52498  53.2152 206.3571 0001571  92.3480 267.7692 15.08842854 73736,6917.872,95.437,540.823,538.65,0.0
52498.0,STARLINK-3925,PAYLOAD,2023-09-03 01:00:43,15.08836584,0.0001409,53.216,203.0851,102.2685,257.8464,2.7758e-05,1.54e-06,0.0,0 STARLINK-3925,1 52498U 22049AZ  23246.04217233  .00000154  00000-0  27758-4 0  9997,2 52498  53.2160 203.0851 0001409 102.2685 257.8464 15.08836584 74009,6917.891,95.438,540.731,538.781,0.0
52498.0,STARLINK-3925,PAYLOAD,2023-09-03 05:46:52,15.08845342,0.0001368,53.2164,202.1943,95.3452,264.7696,0.00011613,1.561e-05,0.0,0 STARLINK-3925,1 52498U 22049AZ  23246.24088555  .00001561  00000-0  11613-3 0  9997,2 52498  53.2164 202.1943 0001368  95.3452 264.7696 15.08845342 74032,6917.864,95.437,540.675,538.783,0.0
52498.0,STARLINK-3925,PAYLOAD,2023-09-03 13:43:48,15.08838419,0.0001391,53.2167,200.7077,90.3421,269.773,4.8102e-05,4.78e-06,0.0,0 STARLINK-3925,1 52498U 22049AZ  23246.57209157  .00000478  00000-0  48102-4 0  9996,2 52498  53.2167 200.7077 0001391  90.3421 269.7730 15.08838419 74080,6917.885,95.438,540.712,538.788,0.0
52498.0,STARLINK-3925,PAYLOAD,2023-09-04 05:37:40,15.08830846,0.0001358,53.217,197.7343,90.4097,269.7051,-2.5058e-05,-6.87e-06,0.0,0 STARLINK-3925,1 52498U 22049AZ  23247.23450228 -.00000687  00000-0 -25058-4 0  9996,2 52498  53.2170 197.7343 0001358  90.4097 269.7051 15.08830846 74181,6917.908,95.438,540.713,538.834,0.0
52498.0,STARLINK-3925,PAYLOAD,2023-09-04 13:34:36,15.0883545,0.0001368,53.2176,196.2474,89.6962,270.4187,1.5013e-05,-4.9e-07,0.0,0 STARLINK-3925,1 52498U 22049AZ  23247.56569954 -.00000049  00000-0  15013-4 0  9990,2 52498  53.2176 196.2474 0001368  89.6962 270.4187 15.08835450 74239,6917.894,95.438,540.706,538.813,0.0
52498.0,STARLINK-3925,PAYLOAD,2023-09-05 07:03:50,15.08844583,0.0001218,53.2175,192.9764,90.2034,269.9098,4.7386e-05,4.66e-06,0.0,0 STARLINK-3925,1 52498U 22049AZ  23248.29433521  .00000466  00000-0  47386-4 0  9991,2 52498  53.2175 192.9764 0001218  90.2034 269.9098 15.08844583 74348,6917.866,95.437,540.574,538.889,0.0
52498.0,STARLINK-3925,PAYLOAD,2023-09-06 02:08:28,15.08835037,0.0001261,53.2175,189.4082,85.2585,274.8551,0.00016915,2.405e-05,0.0,0 STARLINK-3925,1 52498U 22049AZ  23249.08922032  .00002405  00000-0  16915-3 0  9997,2 52498  53.2175 189.4082 0001261  85.2585 274.8551 15.08835037 74461,6917.896,95.438,540.633,538.888,0.0
52498.0,STARLINK-3925,PAYLOAD,2023-09-06 05:19:14,15.08844925,0.0001284,53.2177,188.8123,77.7986,282.3149,0.00017365,2.477e-05,0.0,0 STARLINK-3925,1 52498U 22049AZ  23249.22169486  .00002477  00000-0  17365-3 0  9998,2 52498  53.2177 188.8123 0001284  77.7986 282.3149 15.08844925 74483,6917.865,95.437,540.619,538.842,0.0
52498.0,STARLINK-3925,PAYLOAD,2023-09-07 01:59:15,15.0884268,0.0001726,53.2186,184.9468,94.2167,265.9022,7.8398e-05,9.6e-06,0.0,0 STARLINK-3925,1 52498U 22049AZ  23250.08281928  .00000960  00000-0  78398-4 0  9999,2 52498  53.2186 184.9468 0001726  94.2167 265.9022 15.08842680 74616,6917.872,95.437,540.931,538.543,0.0
